start=new Date('2021-11-23T00:00:00.000Z').valueOf();
sats=[{"FILE":"3221278","OBJECT_TYPE":"PAYLOAD","REV_AT_EPOCH":"6074","TLE_LINE1":"1 46674U 20073E   21326.34191762  .00001677  00000-0  13144-3 0  9993","PERIOD":"95.592","RCS_SIZE":"LARGE","OBJECT_NAME":"STARLINK-1718","ARG_OF_PERICENTER":"82.7235","SEMIMAJOR_AXIS":"6925.330","RA_OF_ASC_NODE":"82.2087","MEAN_ELEMENT_THEORY":"SGP4","ELEMENT_SET_NO":"999","PERIAPSIS":"546.352","SITE":"AFETR","NORAD_CAT_ID":"46674","CLASSIFICATION_TYPE":"U","MEAN_MOTION":"15.06406193","MEAN_MOTION_DDOT":"0.0000000000000","APOAPSIS":"548.037","INCLINATION":"53.0554","EPOCH":"2021-11-22T08:12:21.682368","BSTAR":"0.00013144000000","LAUNCH_DATE":"2020-10-18","DECAY_DATE":null,"TLE_LINE2":"2 46674  53.0554  82.2087 0001217  82.7235 277.3892 15.06406193 60746","GP_ID":"190263740","MEAN_MOTION_DOT":"0.00001677","REF_FRAME":"TEME","MEAN_ANOMALY":"277.3892","ECCENTRICITY":"0.00012170","CENTER_NAME":"EARTH","TIME_SYSTEM":"UTC","OBJECT_ID":"2020-073E","EPHEMERIS_TYPE":"0","COUNTRY_CODE":"US"},{"FILE":"3221278","OBJECT_TYPE":"PAYLOAD","TLE_LINE1":"1 46675U 20073F   21326.33823598 -.00000088  00000-0  12956-4 0  9999","REV_AT_EPOCH":"6074","PERIOD":"95.592","RCS_SIZE":"LARGE","ARG_OF_PERICENTER":"70.7600","OBJECT_NAME":"STARLINK-1720","SEMIMAJOR_AXIS":"6925.349","RA_OF_ASC_NODE":"82.2281","MEAN_ELEMENT_THEORY":"SGP4","ELEMENT_SET_NO":"999","PERIAPSIS":"546.263","SITE":"AFETR","NORAD_CAT_ID":"46675","CLASSIFICATION_TYPE":"U","MEAN_MOTION":"15.06399888","MEAN_MOTION_DDOT":"0.0000000000000","APOAPSIS":"548.165","INCLINATION":"53.0557","EPOCH":"2021-11-22T08:07:03.588672","LAUNCH_DATE":"2020-10-18","BSTAR":"0.00001295600000","DECAY_DATE":null,"TLE_LINE2":"2 46675  53.0557  82.2281 0001373  70.7600 289.3538 15.06399888 60744","MEAN_MOTION_DOT":"-0.00000088","GP_ID":"190264992","MEAN_ANOMALY":"289.3538","REF_FRAME":"TEME","ECCENTRICITY":"0.00013730","CENTER_NAME":"EARTH","TIME_SYSTEM":"UTC","OBJECT_ID":"2020-073F","EPHEMERIS_TYPE":"0","COUNTRY_CODE":"US"},{"ARG_OF_PERICENTER":"84.6661","OBJECT_NAME":"STARLINK-1766","RCS_SIZE":"LARGE","PERIOD":"95.592","TLE_LINE1":"1 46677U 20073H   21326.73263212 -.00000479  00000-0 -13296-4 0  9999","REV_AT_EPOCH":"6128","OBJECT_TYPE":"PAYLOAD","FILE":"3221508","CLASSIFICATION_TYPE":"U","NORAD_CAT_ID":"46677","SITE":"AFETR","MEAN_ELEMENT_THEORY":"SGP4","ELEMENT_SET_NO":"999","PERIAPSIS":"546.362","SEMIMAJOR_AXIS":"6925.357","RA_OF_ASC_NODE":"80.4576","TLE_LINE2":"2 46677  53.0546  80.4576 0001242  84.6661 275.4470 15.06397176 61286","BSTAR":"-0.00001329600000","LAUNCH_DATE":"2020-10-18","DECAY_DATE":null,"EPOCH":"2021-11-22T17:34:59.415168","INCLINATION":"53.0546","MEAN_MOTION_DDOT":"0.0000000000000","APOAPSIS":"548.082","MEAN_MOTION":"15.06397176","EPHEMERIS_TYPE":"0","COUNTRY_CODE":"US","OBJECT_ID":"2020-073H","TIME_SYSTEM":"UTC","CENTER_NAME":"EARTH","ECCENTRICITY":"0.00012420","REF_FRAME":"TEME","MEAN_ANOMALY":"275.4470","GP_ID":"190270839","MEAN_MOTION_DOT":"-0.00000479"},{"CLASSIFICATION_TYPE":"U","NORAD_CAT_ID":"46679","SITE":"AFETR","ELEMENT_SET_NO":"999","PERIAPSIS":"546.728","MEAN_ELEMENT_THEORY":"SGP4","SEMIMAJOR_AXIS":"6925.349","RA_OF_ASC_NODE":"61.8993","ARG_OF_PERICENTER":"160.7650","OBJECT_NAME":"STARLINK-1773","RCS_SIZE":"LARGE","PERIOD":"95.592","REV_AT_EPOCH":"6103","TLE_LINE1":"1 46679U 20073K   21326.40642174  .00000288  00000-0  38198-4 0  9997","OBJECT_TYPE":"PAYLOAD","FILE":"3221278","COUNTRY_CODE":"US","EPHEMERIS_TYPE":"0","OBJECT_ID":"2020-073K","TIME_SYSTEM":"UTC","CENTER_NAME":"EARTH","ECCENTRICITY":"0.00007020","MEAN_ANOMALY":"199.3366","REF_FRAME":"TEME","MEAN_MOTION_DOT":"0.00000288","GP_ID":"190263490","TLE_LINE2":"2 46679  53.0558  61.8993 0000702 160.7650 199.3366 15.06399703 61030","DECAY_DATE":null,"BSTAR":"0.00003819800000","LAUNCH_DATE":"2020-10-18","EPOCH":"2021-11-22T09:45:14.838336","INCLINATION":"53.0558","APOAPSIS":"547.701","MEAN_MOTION_DDOT":"0.0000000000000","MEAN_MOTION":"15.06399703"},{"SEMIMAJOR_AXIS":"6925.347","RA_OF_ASC_NODE":"95.1069","NORAD_CAT_ID":"46680","CLASSIFICATION_TYPE":"U","MEAN_ELEMENT_THEORY":"SGP4","PERIAPSIS":"546.482","ELEMENT_SET_NO":"999","SITE":"AFETR","TLE_LINE1":"1 46680U 20073L   21326.80680639  .00001037  00000-0  88515-4 0  9992","REV_AT_EPOCH":"6108","PERIOD":"95.592","FILE":"3221508","OBJECT_TYPE":"PAYLOAD","RCS_SIZE":"LARGE","OBJECT_NAME":"STARLINK-1774","ARG_OF_PERICENTER":"79.3514","ECCENTRICITY":"0.00010550","GP_ID":"190270520","MEAN_MOTION_DOT":"0.00001037","REF_FRAME":"TEME","MEAN_ANOMALY":"280.7593","OBJECT_ID":"2020-073L","EPHEMERIS_TYPE":"0","COUNTRY_CODE":"US","CENTER_NAME":"EARTH","TIME_SYSTEM":"UTC","INCLINATION":"53.0542","EPOCH":"2021-11-22T19:21:48.072096","MEAN_MOTION":"15.06400384","MEAN_MOTION_DDOT":"0.0000000000000","APOAPSIS":"547.943","BSTAR":"0.00008851500000","LAUNCH_DATE":"2020-10-18","DECAY_DATE":null,"TLE_LINE2":"2 46680  53.0542  95.1069 0001055  79.3514 280.7593 15.06400384 61085"},{"RCS_SIZE":"LARGE","ARG_OF_PERICENTER":"83.1031","OBJECT_NAME":"STARLINK-1775","FILE":"3221508","OBJECT_TYPE":"PAYLOAD","TLE_LINE1":"1 46681U 20073M   21326.77732940 -.00000987  00000-0 -47385-4 0  9997","REV_AT_EPOCH":"6107","PERIOD":"95.592","MEAN_ELEMENT_THEORY":"SGP4","PERIAPSIS":"546.226","ELEMENT_SET_NO":"999","SITE":"AFETR","NORAD_CAT_ID":"46681","CLASSIFICATION_TYPE":"U","SEMIMAJOR_AXIS":"6925.352","RA_OF_ASC_NODE":"95.2565","BSTAR":"-0.00004738500000","LAUNCH_DATE":"2020-10-18","DECAY_DATE":null,"TLE_LINE2":"2 46681  53.0563  95.2565 0001430  83.1031 277.0120 15.06398948 61071","MEAN_MOTION":"15.06398948","MEAN_MOTION_DDOT":"0.0000000000000","APOAPSIS":"548.207","INCLINATION":"53.0563","EPOCH":"2021-11-22T18:39:21.260160","CENTER_NAME":"EARTH","TIME_SYSTEM":"UTC","OBJECT_ID":"2020-073M","EPHEMERIS_TYPE":"0","COUNTRY_CODE":"US","MEAN_MOTION_DOT":"-0.00000987","GP_ID":"190270837","MEAN_ANOMALY":"277.0120","REF_FRAME":"TEME","ECCENTRICITY":"0.00014300"},{"RA_OF_ASC_NODE":"96.9213","SEMIMAJOR_AXIS":"6925.369","NORAD_CAT_ID":"46682","CLASSIFICATION_TYPE":"U","MEAN_ELEMENT_THEORY":"SGP4","PERIAPSIS":"546.292","ELEMENT_SET_NO":"999","SITE":"AFETR","REV_AT_EPOCH":"6054","TLE_LINE1":"1 46682U 20073N   21326.40504843  .00000867  00000-0  77096-4 0  9994","PERIOD":"95.593","FILE":"3221278","OBJECT_TYPE":"PAYLOAD","RCS_SIZE":"LARGE","OBJECT_NAME":"STARLINK-1776","ARG_OF_PERICENTER":"80.0320","ECCENTRICITY":"0.00013600","MEAN_MOTION_DOT":"0.00000867","GP_ID":"190264735","REF_FRAME":"TEME","MEAN_ANOMALY":"280.0822","OBJECT_ID":"2020-073N","EPHEMERIS_TYPE":"0","COUNTRY_CODE":"US","CENTER_NAME":"EARTH","TIME_SYSTEM":"UTC","INCLINATION":"53.0534","EPOCH":"2021-11-22T09:43:16.184352","MEAN_MOTION":"15.06393386","MEAN_MOTION_DDOT":"0.0000000000000","APOAPSIS":"548.176","LAUNCH_DATE":"2020-10-18","BSTAR":"0.00007709600000","DECAY_DATE":null,"TLE_LINE2":"2 46682  53.0534  96.9213 0001360  80.0320 280.0822 15.06393386 60542"},{"MEAN_MOTION_DOT":"0.00001516","GP_ID":"190263991","REF_FRAME":"TEME","MEAN_ANOMALY":"274.2607","ECCENTRICITY":"0.00012720","CENTER_NAME":"EARTH","TIME_SYSTEM":"UTC","OBJECT_ID":"2020-073Q","EPHEMERIS_TYPE":"0","COUNTRY_CODE":"US","MEAN_MOTION":"15.06390810","MEAN_MOTION_DDOT":"0.0000000000000","APOAPSIS":"548.123","INCLINATION":"53.0537","EPOCH":"2021-11-22T09:26:41.473248","LAUNCH_DATE":"2020-10-18","BSTAR":"0.00012065000000","DECAY_DATE":null,"TLE_LINE2":"2 46684  53.0537  81.9763 0001272  85.8528 274.2607 15.06390810 60754","SEMIMAJOR_AXIS":"6925.377","RA_OF_ASC_NODE":"81.9763","MEAN_ELEMENT_THEORY":"SGP4","ELEMENT_SET_NO":"999","PERIAPSIS":"546.361","SITE":"AFETR","NORAD_CAT_ID":"46684","CLASSIFICATION_TYPE":"U","FILE":"3221278","OBJECT_TYPE":"PAYLOAD","REV_AT_EPOCH":"6075","TLE_LINE1":"1 46684U 20073Q   21326.39353557  .00001516  00000-0  12065-3 0  9994","PERIOD":"95.593","RCS_SIZE":"LARGE","ARG_OF_PERICENTER":"85.8528","OBJECT_NAME":"STARLINK-1780"},{"TLE_LINE2":"2 46685  53.0571  95.2208 0001432  82.7418 277.3734 15.06400019 61071","DECAY_DATE":null,"BSTAR":"0.00005753900000","LAUNCH_DATE":"2020-10-18","EPOCH":"2021-11-22T18:44:39.487776","INCLINATION":"53.0571","APOAPSIS":"548.205","MEAN_MOTION_DDOT":"0.0000000000000","MEAN_MOTION":"15.06400019","COUNTRY_CODE":"US","EPHEMERIS_TYPE":"0","OBJECT_ID":"2020-073R","TIME_SYSTEM":"UTC","CENTER_NAME":"EARTH","ECCENTRICITY":"0.00014320","MEAN_ANOMALY":"277.3734","REF_FRAME":"TEME","MEAN_MOTION_DOT":"0.00000576","GP_ID":"190271174","ARG_OF_PERICENTER":"82.7418","OBJECT_NAME":"STARLINK-1781","RCS_SIZE":"LARGE","PERIOD":"95.592","TLE_LINE1":"1 46685U 20073R   21326.78101259  .00000576  00000-0  57539-4 0  9999","REV_AT_EPOCH":"6107","OBJECT_TYPE":"PAYLOAD","FILE":"3221526","CLASSIFICATION_TYPE":"U","NORAD_CAT_ID":"46685","SITE":"AFETR","PERIAPSIS":"546.222","ELEMENT_SET_NO":"999","MEAN_ELEMENT_THEORY":"SGP4","RA_OF_ASC_NODE":"95.2208","SEMIMAJOR_AXIS":"6925.348"},{"INCLINATION":"53.0549","EPOCH":"2021-11-22T15:07:02.418240","MEAN_MOTION":"15.06399918","APOAPSIS":"548.139","MEAN_MOTION_DDOT":"0.0000000000000","DECAY_DATE":null,"BSTAR":"0.00001523300000","LAUNCH_DATE":"2020-10-18","TLE_LINE2":"2 46686  53.0549  95.9088 0001336  74.5051 285.6086 15.06399918 61050","ECCENTRICITY":"0.00013360","GP_ID":"190273803","MEAN_MOTION_DOT":"-0.00000055","MEAN_ANOMALY":"285.6086","REF_FRAME":"TEME","OBJECT_ID":"2020-073S","COUNTRY_CODE":"US","EPHEMERIS_TYPE":"0","CENTER_NAME":"EARTH","TIME_SYSTEM":"UTC","TLE_LINE1":"1 46686U 20073S   21326.62988910 -.00000055  00000-0  15233-4 0  9998","REV_AT_EPOCH":"6105","PERIOD":"95.592","FILE":"3221631","OBJECT_TYPE":"PAYLOAD","RCS_SIZE":"LARGE","ARG_OF_PERICENTER":"74.5051","OBJECT_NAME":"STARLINK-1783","SEMIMAJOR_AXIS":"6925.349","RA_OF_ASC_NODE":"95.9088","NORAD_CAT_ID":"46686","CLASSIFICATION_TYPE":"U","PERIAPSIS":"546.289","ELEMENT_SET_NO":"999","MEAN_ELEMENT_THEORY":"SGP4","SITE":"AFETR"}];
